{"type": "FeatureCollection", "attribution": "© OpenStreetMap contributors (ODbL)", "note": "PREVIEW SAMPLE from Nominatim; the real file is built by build_geo.py", "features": [{"type": "Feature", "properties": {"id": "คลองพระยาสุเรนทร์", "name": "คลองพระยาสุเรนทร์"}, "geometry": {"type": "MultiLineString", "coordinates": [[[100.6897725, 13.9310455], [100.6897667, 13.9294036], [100.6897433, 13.9291302], [100.6897276, 13.9289383], [100.6897219, 13.9288687], [100.6897181, 13.9288213], [100.6895998, 13.9282765], [100.6894935, 13.9277884], [100.6894342, 13.92738], [100.6894087, 13.9272743], [100.6893584, 13.9259664], [100.6893239, 13.9258125], [100.6892105, 13.9256152], [100.6889008, 13.9253208], [100.6886831, 13.9250461], [100.688631, 13.9248126], [100.6885666, 13.9244579], [100.688542, 13.923872], [100.6878677, 13.9228967], [100.6873889, 13.9216421], [100.687279, 13.9213495], [100.6872302, 13.9211478], [100.6872274, 13.9211376], [100.6871442, 13.9208368], [100.6871109, 13.9205991], [100.6871613, 13.9198491], [100.687257, 13.9189737], [100.6872947, 13.918616], [100.6875041, 13.917618], [100.6875195, 13.9173209], [100.6874368, 13.9171054], [100.6868292, 13.9162736]], [[100.6753144, 13.8564235], [100.6749642, 13.8560739], [100.6740631, 13.8553033], [100.6708886, 13.8536578], [100.6706903, 13.8534241], [100.6707928, 13.8527573]], [[100.6802343, 13.8586454], [100.679642, 13.8584656], [100.6774104, 13.8579823], [100.6763117, 13.8574406], [100.6753144, 13.8564235]], [[100.68677, 13.9161911], [100.6864039, 13.9156916], [100.6859394, 13.9151618], [100.6854303, 13.9147033], [100.6850551, 13.9144333], [100.6846772, 13.9142168], [100.6841314, 13.914036], [100.6838375, 13.9137074], [100.6836722, 13.9134119], [100.6836963, 13.9126446], [100.683623, 13.9120643], [100.6836028, 13.9117117], [100.6836097, 13.9113552], [100.6837326, 13.9112438], [100.683901, 13.9112003], [100.6848733, 13.9107015], [100.6858332, 13.9102447], [100.6868847, 13.9094299], [100.6870294, 13.9091201], [100.6869886, 13.9084285], [100.6870034, 13.9078557], [100.6877419, 13.9058133], [100.6887293, 13.9042312], [100.6892708, 13.9036015], [100.6901952, 13.9017206], [100.690315, 13.9011603], [100.690433, 13.9006086], [100.6904614, 13.900476], [100.6915821, 13.8991216], [100.6919613, 13.8985344], [100.6922693, 13.8979364], [100.6923175, 13.8976338], [100.6923101, 13.8972375], [100.6921895, 13.8962693], [100.6918846, 13.8947292], [100.6918059, 13.8931575], [100.6915581, 13.89185], [100.6914007, 13.8905102], [100.6913869, 13.889792], [100.6913398, 13.8873454], [100.6914553, 13.8871441], [100.6916967, 13.8869735], [100.6920168, 13.8867901], [100.6920483, 13.8866576], [100.6919486, 13.886492], [100.6915629, 13.8862551], [100.6906523, 13.8856336], [100.6903217, 13.8852311], [100.6900147, 13.8845789], [100.6896762, 13.8834708], [100.6894446, 13.8823618], [100.6893555, 13.8815728], [100.6894655, 13.8812251], [100.689833, 13.8804634], [100.6899095, 13.8800286], [100.6898636, 13.8796942], [100.6895191, 13.8794564], [100.6884934, 13.8790105], [100.6880915, 13.878743], [100.6878673, 13.8784618], [100.6877508, 13.8783157], [100.6872035, 13.8777471], [100.686572, 13.8767067], [100.6857567, 13.8757815], [100.684995, 13.8753245], [100.6846773, 13.8749417], [100.6844056, 13.8742766], [100.6844, 13.8740463], [100.6843903, 13.8736449], [100.6845931, 13.8726268], [100.6849223, 13.8714971], [100.6853778, 13.8704121], [100.6856342, 13.8697024], [100.6856036, 13.8689295], [100.6851634, 13.8683052], [100.6844783, 13.8672276], [100.6841568, 13.8665699], [100.6839807, 13.8660236], [100.683547, 13.8638377], [100.6833939, 13.8628641], [100.6833784, 13.8628225], [100.6831949, 13.862329], [100.6821688, 13.8607872], [100.6817466, 13.8604404], [100.6812648, 13.8601513], [100.6803988, 13.8589373], [100.6802343, 13.8586454]], [[100.6868292, 13.9162736], [100.68677, 13.9161911]]]}}, {"type": "Feature", "properties": {"id": "คลองบางเชือกหนัง", "name": "คลองบางเชือกหนัง"}, "geometry": {"type": "MultiLineString", "coordinates": [[[100.3525637, 13.752092], [100.3555683, 13.7525827], [100.3566222, 13.7527599], [100.3582352, 13.7530311], [100.3589992, 13.7531595], [100.3599738, 13.7533204], [100.3611049, 13.7535071], [100.3623919, 13.7537195], [100.3628095, 13.7537884], [100.3628917, 13.7537923], [100.3630534, 13.7537998], [100.3639188, 13.7538404], [100.3676787, 13.7538373], [100.3688058, 13.7538011], [100.3690282, 13.753794], [100.3700439, 13.7537031], [100.3701069, 13.7536975], [100.3714582, 13.7536166], [100.3715606, 13.7536105], [100.372223, 13.7536024], [100.3724189, 13.7536], [100.3732397, 13.7535636], [100.3739362, 13.7535299], [100.3743769, 13.7534646], [100.3748898, 13.7534565], [100.375121, 13.7534528], [100.3761745, 13.7533184], [100.3768288, 13.7533367], [100.3772643, 13.7533118], [100.3784064, 13.7532175], [100.379512, 13.7531423], [100.3800592, 13.7530866], [100.3810879, 13.7529636], [100.3820669, 13.7528661], [100.3824709, 13.7528176], [100.3829865, 13.7527271], [100.3837576, 13.7526043], [100.3847865, 13.7525345], [100.3851176, 13.7525013], [100.3858861, 13.752404], [100.3865224, 13.7523236], [100.3872526, 13.7522307], [100.3882902, 13.7520883], [100.3891179, 13.7520155], [100.389633, 13.7519493], [100.3901417, 13.7518774], [100.3907384, 13.7517398], [100.3913124, 13.7516617], [100.3921761, 13.7515575], [100.3932972, 13.7513907], [100.3941019, 13.7512657], [100.394574, 13.7512031], [100.3950675, 13.7511562], [100.395561, 13.7510833], [100.3961136, 13.7510208], [100.3967305, 13.7509426], [100.397047, 13.7509374], [100.3977712, 13.7508071], [100.3985919, 13.7506769], [100.3992571, 13.7505987], [100.40011, 13.7504372], [100.4005714, 13.7503746], [100.4010381, 13.7503382], [100.4015692, 13.7502548], [100.4023363, 13.7501297], [100.4030605, 13.749937], [100.4037686, 13.7497546], [100.404643, 13.7496087], [100.4054155, 13.7494471], [100.4061589, 13.7493404], [100.4066975, 13.7492387], [100.4074057, 13.7491085], [100.4079528, 13.7490511], [100.4085541, 13.7489575], [100.4091231, 13.7488071], [100.4094722, 13.7487383], [100.4101779, 13.7486404], [100.4103298, 13.7486057], [100.4108386, 13.7485029], [100.4115383, 13.7483179], [100.4123481, 13.7481231], [100.4131829, 13.7478879], [100.4133064, 13.7478687], [100.4139638, 13.7477355], [100.4145428, 13.7476167], [100.4151533, 13.747544], [100.415808, 13.7474448], [100.4162742, 13.7473614], [100.4167449, 13.7472018], [100.4168058, 13.7471811], [100.4176118, 13.746751], [100.4177195, 13.7466862], [100.4181759, 13.7464115], [100.4186398, 13.7461365], [100.4187786, 13.7460543], [100.4190203, 13.7459138], [100.4193582, 13.7457625], [100.4197876, 13.745491], [100.4201629, 13.7451638], [100.4202651, 13.745077], [100.4206693, 13.7447339], [100.4210016, 13.7444275], [100.4212103, 13.7443011], [100.4214114, 13.7441891], [100.4218033, 13.7440851], [100.4225004, 13.7439442], [100.4226684, 13.7438856], [100.4230688, 13.7437459], [100.4236246, 13.7436187], [100.4237541, 13.743589], [100.4242364, 13.7435309], [100.4246803, 13.7434765], [100.4249592, 13.7434035], [100.4251027, 13.7433348], [100.4253924, 13.7430169], [100.4255265, 13.7428762], [100.425657, 13.742818], [100.4256995, 13.7427991], [100.4261394, 13.7426792], [100.4265726, 13.7425479], [100.4267805, 13.7424803], [100.4268099, 13.7424708], [100.4269513, 13.7423971], [100.4270996, 13.7423197], [100.4272337, 13.7423093], [100.4277906, 13.7422675], [100.4280317, 13.7422665], [100.4284395, 13.7422771], [100.4287725, 13.7422623], [100.4292776, 13.7421842], [100.4294802, 13.74218], [100.4297121, 13.7421894], [100.429856, 13.7422221], [100.4299148, 13.7422354], [100.4304577, 13.7423353], [100.4306388, 13.7423239], [100.4309459, 13.7422467], [100.4311216, 13.7421519], [100.4312175, 13.7419757], [100.431819, 13.7410214], [100.4321901, 13.7405166], [100.4322821, 13.7404042], [100.4324573, 13.7403105], [100.432688, 13.7402531], [100.4329428, 13.7402658], [100.4332566, 13.7402922], [100.4337582, 13.7402475], [100.4346299, 13.7401303], [100.4349679, 13.7400313], [100.4354185, 13.7399874], [100.4357993, 13.7400004], [100.4365209, 13.7399926], [100.4370949, 13.7399479], [100.4375909, 13.7399637], [100.4384439, 13.740021], [100.4387657, 13.7400106], [100.4392485, 13.7399845], [100.4396761, 13.7400556], [100.4401964, 13.7402172], [100.4404378, 13.7403735], [100.4405666, 13.7404308], [100.4407452, 13.7404274], [100.4413605, 13.7402953], [100.4417752, 13.7402711], [100.442487, 13.7402901], [100.4431538, 13.7401304], [100.4433095, 13.740159], [100.4435992, 13.7402606], [100.4441893, 13.7405055], [100.4444656, 13.7405758], [100.4447534, 13.7405771], [100.4450798, 13.7405837], [100.4456591, 13.7406466], [100.4461983, 13.7406857], [100.4465148, 13.740654], [100.4470941, 13.7404199], [100.4473935, 13.7403225], [100.4476223, 13.7402926], [100.4478559, 13.740271], [100.4482931, 13.7403726], [100.4487356, 13.7406801], [100.4490602, 13.740829], [100.4492211, 13.7408286], [100.449366, 13.740727], [100.4495564, 13.7405576], [100.4497307, 13.7404586], [100.4499024, 13.7404508], [100.4500365, 13.7404929], [100.4504844, 13.740925], [100.450699, 13.7411208], [100.4508465, 13.7411572], [100.4510745, 13.7411572], [100.4516592, 13.7410787], [100.4521045, 13.7410474], [100.4523298, 13.7410921], [100.4524988, 13.7411803], [100.4528636, 13.7414669], [100.4535127, 13.7418816], [100.4540115, 13.742017], [100.4541564, 13.7420874], [100.4542503, 13.7423215], [100.4544139, 13.7425013], [100.4546124, 13.7425403], [100.454843, 13.7425091], [100.4549852, 13.7424052], [100.4551354, 13.7421782], [100.4552534, 13.7420144], [100.4554063, 13.7419493], [100.455645, 13.7419649], [100.4561493, 13.7420401], [100.4564068, 13.7421499], [100.456734, 13.7425065], [100.4569217, 13.7429128], [100.4569405, 13.7431681], [100.4568493, 13.7433453], [100.4567508, 13.7435094], [100.4569004, 13.7438017], [100.4571733, 13.7439645], [100.4577539, 13.7439801], [100.4582537, 13.7437828], [100.4585355, 13.7436716], [100.4589978, 13.743648], [100.4592279, 13.7436453], [100.4594069, 13.7436395], [100.4597017, 13.7436844], [100.4601255, 13.7438685], [100.4603594, 13.7439701], [100.4618118, 13.7443729], [100.4619713, 13.7443884]]]}}, {"type": "Feature", "properties": {"id": "คลองสาม", "name": "คลองสาม"}, "geometry": {"type": "MultiLineString", "coordinates": [[[100.6628666, 14.1657308], [100.6631795, 14.138965], [100.6633809, 14.1087113], [100.6634297, 14.1013743], [100.6635035, 14.0896607], [100.6636667, 14.0637646], [100.6638252, 14.039293], [100.6640161, 14.0098019]], [[100.7018266, 13.5322564], [100.7089201, 13.5310217], [100.7142999, 13.5300922], [100.7188723, 13.5293028], [100.7236817, 13.5283598], [100.7272251, 13.5276725], [100.7322089, 13.5266829]], [[100.4444351, 13.553714], [100.4442134, 13.5536873], [100.4439985, 13.5536176], [100.4434005, 13.5533966], [100.442684, 13.5529883], [100.4423257, 13.5528057], [100.4419946, 13.552664], [100.4416364, 13.5524935], [100.4413423, 13.5523055], [100.4401175, 13.5516282], [100.4395034, 13.5512722], [100.4391297, 13.5510498], [100.4387076, 13.5508537], [100.4383652, 13.5506834], [100.4380838, 13.5505456], [100.4379432, 13.5504636], [100.4378959, 13.5504442], [100.4378593, 13.5504332], [100.437834, 13.5504183], [100.4377763, 13.5503607], [100.4376957, 13.5503051], [100.4374129, 13.5501587], [100.4372087, 13.5500562], [100.4371033, 13.5500042], [100.4369364, 13.5498716], [100.4365036, 13.5496425], [100.4363994, 13.5496051], [100.4363428, 13.5495853], [100.4362635, 13.5495104], [100.4361525, 13.5494553], [100.4355951, 13.5491632], [100.4347878, 13.5486912], [100.4344247, 13.5485214], [100.4340438, 13.5483169], [100.4336353, 13.5481411], [100.4324925, 13.5475117], [100.4313147, 13.5468735], [100.43015, 13.5462183], [100.4295546, 13.5458876], [100.429138, 13.5456819], [100.4288741, 13.545504], [100.4286671, 13.5453867], [100.4284145, 13.5452489], [100.4283183, 13.5451998], [100.4281928, 13.5451411], [100.4280722, 13.5450524], [100.4276159, 13.5447957], [100.4274203, 13.5447228], [100.4273062, 13.544642], [100.4271155, 13.5445643], [100.426651, 13.5443124], [100.4263401, 13.5441401], [100.4262245, 13.5440982], [100.4260861, 13.5440098], [100.4258524, 13.5439272], [100.4256257, 13.5437968], [100.4254684, 13.5437044], [100.4253504, 13.5436008], [100.4251834, 13.5434925], [100.4250786, 13.543431], [100.4250273, 13.5434157], [100.4249624, 13.5433842], [100.4248599, 13.5433094], [100.4247728, 13.5432297], [100.4246686, 13.5431749], [100.4245282, 13.5431083], [100.4245013, 13.5430961], [100.4243955, 13.543048], [100.4243437, 13.543037], [100.4242842, 13.5430296], [100.4241983, 13.5429989], [100.4241186, 13.5429595], [100.4240036, 13.5428637], [100.4239302, 13.5428292], [100.4238632, 13.5428206], [100.423795, 13.5427862], [100.4236205, 13.5426645], [100.4234308, 13.5425326], [100.4232779, 13.5424582], [100.4230085, 13.542283], [100.4228915, 13.542228], [100.4228029, 13.5421557], [100.4225599, 13.5420334], [100.4223198, 13.5419251], [100.4222872, 13.5419056], [100.4221569, 13.5418278], [100.4217682, 13.5415944], [100.4207277, 13.5410191], [100.4202789, 13.5407635], [100.4197845, 13.5405258], [100.4192783, 13.5402702], [100.4188703, 13.5400528], [100.4186368, 13.5399059], [100.4183602, 13.5397328], [100.4182155, 13.5396559], [100.4181199, 13.5396147], [100.418053, 13.5396134], [100.4179916, 13.5396214], [100.417941, 13.5396545], [100.4178878, 13.5397129], [100.4178605, 13.5397634], [100.4178182, 13.5398483], [100.4177991, 13.5399054], [100.4177897, 13.5399752], [100.4177994, 13.5400469], [100.4178619, 13.5401783]], [[100.6635229, 13.9792377], [100.6631676, 13.9662317], [100.6629307, 13.9563151], [100.662862, 13.952042], [100.6627934, 13.9475355], [100.6626875, 13.9424138], [100.662678, 13.9419778], [100.6626662, 13.9407668], [100.6626129, 13.933247], [100.6625687, 13.9304317]], [[100.689287, 13.5346555], [100.6893808, 13.5346633], [100.6900111, 13.5345251], [100.6907541, 13.5344807], [100.6911617, 13.5344964], [100.6913522, 13.5344729], [100.691953, 13.5341782], [100.6928274, 13.5338184], [100.6931815, 13.5337245], [100.7018266, 13.5322564]], [[100.6640504, 13.9947002], [100.6635282, 13.9794318]]]}}, {"type": "Feature", "properties": {"id": "คลองบางบอน", "name": "คลองบางบอน"}, "geometry": {"type": "MultiLineString", "coordinates": [[[100.4434044, 13.6795758], [100.4434945, 13.6795646], [100.4436432, 13.6795215], [100.443813, 13.6794921], [100.4439612, 13.6794611], [100.4441369, 13.6794433], [100.4443426, 13.6795263], [100.444555, 13.6796647], [100.4446472, 13.6798256], [100.4447027, 13.6800063], [100.4447622, 13.680142], [100.4448557, 13.6801938], [100.4449788, 13.6801752], [100.4450523, 13.6801107], [100.4451546, 13.6799856], [100.4452538, 13.6799234], [100.4453948, 13.6798918], [100.4454868, 13.6799175], [100.4455719, 13.6799932], [100.4456164, 13.6800885], [100.4456597, 13.6802355], [100.4456818, 13.6803975], [100.4456786, 13.6805533], [100.4456959, 13.6807049], [100.4457323, 13.6808424], [100.4458133, 13.6809205], [100.4459149, 13.6809603], [100.4460175, 13.68095], [100.4461196, 13.6808897], [100.4462197, 13.6807728], [100.446305, 13.6806894], [100.4463871, 13.6806396], [100.4464862, 13.6806082], [100.4465578, 13.6806262], [100.4466115, 13.6806731], [100.4466736, 13.680759], [100.4467593, 13.6808581], [100.4468196, 13.6809155], [100.4469022, 13.6809473], [100.4470362, 13.6809264], [100.4471334, 13.6808821], [100.4472603, 13.6807936], [100.4473783, 13.6806947], [100.4474819, 13.6806185], [100.4475786, 13.6806135], [100.4476689, 13.6806421], [100.4477528, 13.6807044], [100.4477981, 13.6807721], [100.4478119, 13.6808429], [100.4478048, 13.6809219], [100.4477404, 13.6810522], [100.4476439, 13.6812295], [100.4475619, 13.681413]], [[100.3719075, 13.6370844], [100.3720167, 13.6370852], [100.3721229, 13.6371494], [100.3721859, 13.6371874], [100.3725786, 13.6375273], [100.3730485, 13.6378745], [100.3736183, 13.6382935], [100.3739551, 13.638589], [100.3745763, 13.6390063], [100.3750637, 13.6393287], [100.375588, 13.6396923], [100.3761026, 13.6400478], [100.3765203, 13.6403269], [100.3769562, 13.6406612], [100.3773459, 13.6409938], [100.3776153, 13.6411913], [100.3780591, 13.6414543], [100.3783909, 13.6417332], [100.3786027, 13.6419468], [100.3787635, 13.6420565], [100.3793509, 13.6424422], [100.3797908, 13.6428306], [100.3802951, 13.6431564], [100.3816067, 13.643954], [100.3823711, 13.644444], [100.3831462, 13.6449315], [100.3836639, 13.6452312], [100.3842004, 13.6455205], [100.3846724, 13.6457343], [100.385123, 13.6459688], [100.3855334, 13.646253], [100.3858901, 13.646524], [100.3862281, 13.6467456], [100.3866787, 13.6469723], [100.3872312, 13.6472565], [100.3874163, 13.6473425], [100.3881459, 13.6477517], [100.388795, 13.6481818], [100.3894789, 13.6486535], [100.3897684, 13.6487974], [100.3899456, 13.6488855], [100.3913109, 13.6497456], [100.3919224, 13.6500819], [100.392542, 13.650465], [100.3933533, 13.6509383], [100.3938759, 13.6512432], [100.3951553, 13.6519444], [100.3956971, 13.6522415], [100.3961907, 13.6524657], [100.3967834, 13.6526533], [100.3971294, 13.652755], [100.3973252, 13.6528488], [100.3975157, 13.6530078], [100.397623, 13.6530938], [100.3978563, 13.6534196], [100.3980923, 13.6536177], [100.3984866, 13.6538679], [100.3989158, 13.6541025], [100.3996561, 13.6545273], [100.400273, 13.6548844], [100.4008255, 13.6551607], [100.4016221, 13.6555959], [100.4018843, 13.6557607], [100.4025716, 13.6561928], [100.4035775, 13.6568053], [100.4047362, 13.657496], [100.4055891, 13.6579782], [100.4062221, 13.6583483], [100.4064152, 13.658463], [100.4076893, 13.6592318], [100.4095561, 13.6603056], [100.4104493, 13.6608399], [100.4113586, 13.6612856], [100.4121325, 13.6617044], [100.4123621, 13.6618444], [100.4131325, 13.6623], [100.4134089, 13.6624662], [100.4139667, 13.6628017], [100.4150195, 13.6634598], [100.4166382, 13.6644541], [100.4185506, 13.6655618], [100.4200553, 13.6664636], [100.4208747, 13.6669914], [100.4215989, 13.6673614], [100.4220898, 13.6675647], [100.4221664, 13.6676117], [100.4223195, 13.6677524], [100.4224908, 13.6678527], [100.4226329, 13.6679348], [100.4229253, 13.6680521], [100.4234966, 13.6683218], [100.4237138, 13.6684626], [100.4240022, 13.6686815], [100.4242369, 13.6688874], [100.4245185, 13.6690412], [100.4253218, 13.6694451], [100.4257081, 13.6696966], [100.4261761, 13.6699716], [100.4271258, 13.670501], [100.4283757, 13.6711786], [100.4290349, 13.671593], [100.4296804, 13.6719784], [100.4299984, 13.6721899], [100.430408, 13.6723896], [100.4306153, 13.6725486], [100.4312308, 13.6728465], [100.4321628, 13.6734671], [100.4324593, 13.6737351], [100.4326364, 13.6738312], [100.4328685, 13.6739064], [100.43317, 13.6740324], [100.4336051, 13.6743193], [100.4339853, 13.6745432], [100.4342512, 13.6746861], [100.434712, 13.6748742], [100.4350941, 13.6750983], [100.4355601, 13.6753301], [100.4359603, 13.6755493], [100.4362976, 13.6757408], [100.4369787, 13.6760434], [100.4373646, 13.6762103], [100.4375103, 13.6763417], [100.4376549, 13.6764557], [100.4379844, 13.6765911], [100.4383711, 13.6767355], [100.4386302, 13.6768618], [100.4389764, 13.6771707], [100.4391989, 13.6774004], [100.4394647, 13.6775476], [100.4398943, 13.6775511], [100.440415, 13.6779967], [100.440564, 13.6780701], [100.4407715, 13.6781212], [100.441013, 13.6782047], [100.441343, 13.6783927], [100.4415278, 13.6784477], [100.4418252, 13.6785339], [100.4421003, 13.6786514], [100.4423988, 13.6788336], [100.443356, 13.6795658], [100.4434044, 13.6795758]]]}}, {"type": "Feature", "properties": {"id": "คลองบางบัว", "name": "คลองบางบัว"}, "geometry": {"type": "MultiLineString", "coordinates": [[[100.5863916, 13.8588484], [100.5865208, 13.8583833], [100.5865713, 13.8582601], [100.5866925, 13.8579666], [100.5872075, 13.8570083], [100.5873414, 13.8564524], [100.587422, 13.8557583], [100.5874568, 13.8533981], [100.5874684, 13.8528633], [100.5875255, 13.8525297], [100.5875698, 13.8522528], [100.5881301, 13.8499915], [100.5885585, 13.847629], [100.5887845, 13.846427], [100.5892196, 13.8452383], [100.5895343, 13.8443683], [100.5896567, 13.8440436], [100.5897442, 13.843833]], [[100.5946709, 13.8876072], [100.5946019, 13.8875295], [100.5893156, 13.8815825], [100.5886237, 13.8807152], [100.5882374, 13.8800487], [100.5880335, 13.8794263], [100.5879477, 13.8788014], [100.5878565, 13.8776163], [100.5867809, 13.8639057], [100.5865948, 13.8615339], [100.5865495, 13.8609347], [100.5863916, 13.8588484]], [[100.6110128, 13.8997801], [100.6077984, 13.8978039], [100.6075455, 13.8976067], [100.6071519, 13.8972058], [100.607031, 13.8971369], [100.6067029, 13.8967381], [100.6063048, 13.8961714], [100.6056891, 13.8955004], [100.6052973, 13.8952472], [100.6038593, 13.8943882], [100.5980914, 13.8905555], [100.5968019, 13.8895856], [100.5958959, 13.8888789], [100.5950123, 13.8880117], [100.5946709, 13.8876072]], [[100.6397021, 13.9322136], [100.6395642, 13.9319123], [100.6393496, 13.9312042], [100.6387917, 13.9301212], [100.6357059, 13.9246861], [100.6355541, 13.9244599], [100.6347925, 13.923159], [100.6344885, 13.9225845], [100.6342293, 13.9221367], [100.6312383, 13.9169692], [100.6309971, 13.9165478], [100.6304671, 13.9156216], [100.6291787, 13.9132511], [100.6286813, 13.9125083], [100.6262255, 13.9082106], [100.6261523, 13.9080933], [100.6257186, 13.9073983], [100.625292, 13.9068281], [100.625162, 13.9066939]]]}}, {"type": "Feature", "properties": {"id": "คลองลำผักชี", "name": "คลองลำผักชี"}, "geometry": {"type": "MultiLineString", "coordinates": [[[100.6086472, 13.8957209], [100.6087901, 13.8955293], [100.6090457, 13.895119], [100.609395, 13.8946832], [100.6097307, 13.8943633], [100.6102991, 13.8937196], [100.6106163, 13.8932758], [100.6109787, 13.892734], [100.6112979, 13.8924681], [100.6112979, 13.8923262], [100.611092, 13.8921083], [100.6107439, 13.8917684], [100.6100684, 13.8908947], [100.6098151, 13.8904829], [100.6094496, 13.8898336], [100.6088717, 13.8888335], [100.6087772, 13.8884275], [100.6089476, 13.8881643], [100.6092714, 13.8877944], [100.6097826, 13.8873913], [100.6108159, 13.8867973], [100.6112589, 13.8865642], [100.6126547, 13.886068], [100.6131829, 13.8859191], [100.6137112, 13.8859567], [100.6146577, 13.8858514], [100.615427, 13.8857579], [100.6161636, 13.8855671], [100.6165522, 13.8854048], [100.616795, 13.8852553]], [[100.616795, 13.8852553], [100.6171703, 13.8849407], [100.6186777, 13.8842506], [100.6190976, 13.8841711]], [[100.6071519, 13.8972058], [100.6074664, 13.8968468], [100.6084319, 13.8960099], [100.6084798, 13.8959455], [100.6086472, 13.8957209]], [[100.6211039, 13.8836823], [100.6214024, 13.8833926], [100.6230221, 13.8824127], [100.6231087, 13.8825165], [100.6233935, 13.8827814], [100.6234661, 13.8828345], [100.623559, 13.8829553]]]}}]}