{"type":"FeatureCollection","note":"Province reference points: median position of ThaiWater rain stations per province","features":[{"type":"Feature","properties":{"id":"กระบี่","name":"กระบี่","province":"ภาคใต้","lat":8.1863,"lon":98.9149,"stations":59},"geometry":{"type":"Point","coordinates":[98.9149,8.1863]}},{"type":"Feature","properties":{"id":"กรุงเทพมหานคร","name":"กรุงเทพมหานคร","province":"กรุงเทพมหานคร","lat":13.7613,"lon":100.5756,"stations":15},"geometry":{"type":"Point","coordinates":[100.5756,13.7613]}},{"type":"Feature","properties":{"id":"กาญจนบุรี","name":"กาญจนบุรี","province":"ภาคกลาง","lat":14.4497,"lon":99.1548,"stations":102},"geometry":{"type":"Point","coordinates":[99.1548,14.4497]}},{"type":"Feature","properties":{"id":"กาฬสินธุ์","name":"กาฬสินธุ์","province":"ภาคตะวันออกเฉียงเหนือ","lat":16.5759,"lon":103.7039,"stations":26},"geometry":{"type":"Point","coordinates":[103.7039,16.5759]}},{"type":"Feature","properties":{"id":"กำแพงเพชร","name":"กำแพงเพชร","province":"ภาคเหนือ","lat":16.3722,"lon":99.3852,"stations":47},"geometry":{"type":"Point","coordinates":[99.3852,16.3722]}},{"type":"Feature","properties":{"id":"ขอนแก่น","name":"ขอนแก่น","province":"ภาคตะวันออกเฉียงเหนือ","lat":16.534,"lon":102.5833,"stations":30},"geometry":{"type":"Point","coordinates":[102.5833,16.534]}},{"type":"Feature","properties":{"id":"จันทบุรี","name":"จันทบุรี","province":"ภาคกลาง","lat":12.896,"lon":102.1502,"stations":57},"geometry":{"type":"Point","coordinates":[102.1502,12.896]}},{"type":"Feature","properties":{"id":"ฉะเชิงเทรา","name":"ฉะเชิงเทรา","province":"ภาคกลาง","lat":13.6834,"lon":101.1457,"stations":17},"geometry":{"type":"Point","coordinates":[101.1457,13.6834]}},{"type":"Feature","properties":{"id":"ชลบุรี","name":"ชลบุรี","province":"ภาคกลาง","lat":13.078,"lon":100.9833,"stations":27},"geometry":{"type":"Point","coordinates":[100.9833,13.078]}},{"type":"Feature","properties":{"id":"ชัยนาท","name":"ชัยนาท","province":"ภาคกลาง","lat":15.1589,"lon":100.0835,"stations":29},"geometry":{"type":"Point","coordinates":[100.0835,15.1589]}},{"type":"Feature","properties":{"id":"ชัยภูมิ","name":"ชัยภูมิ","province":"ภาคตะวันออกเฉียงเหนือ","lat":16.0188,"lon":101.793,"stations":63},"geometry":{"type":"Point","coordinates":[101.793,16.0188]}},{"type":"Feature","properties":{"id":"ชุมพร","name":"ชุมพร","province":"ภาคใต้","lat":10.2566,"lon":99.0435,"stations":87},"geometry":{"type":"Point","coordinates":[99.0435,10.2566]}},{"type":"Feature","properties":{"id":"ตรัง","name":"ตรัง","province":"ภาคใต้","lat":7.5993,"lon":99.5971,"stations":60},"geometry":{"type":"Point","coordinates":[99.5971,7.5993]}},{"type":"Feature","properties":{"id":"ตราด","name":"ตราด","province":"ภาคกลาง","lat":12.3545,"lon":102.4746,"stations":44},"geometry":{"type":"Point","coordinates":[102.4746,12.3545]}},{"type":"Feature","properties":{"id":"ตาก","name":"ตาก","province":"ภาคเหนือ","lat":16.9564,"lon":98.9029,"stations":102},"geometry":{"type":"Point","coordinates":[98.9029,16.9564]}},{"type":"Feature","properties":{"id":"นครนายก","name":"นครนายก","province":"ภาคกลาง","lat":14.3152,"lon":101.2891,"stations":25},"geometry":{"type":"Point","coordinates":[101.2891,14.3152]}},{"type":"Feature","properties":{"id":"นครปฐม","name":"นครปฐม","province":"ภาคกลาง","lat":13.9326,"lon":100.1851,"stations":8},"geometry":{"type":"Point","coordinates":[100.1851,13.9326]}},{"type":"Feature","properties":{"id":"นครพนม","name":"นครพนม","province":"ภาคตะวันออกเฉียงเหนือ","lat":17.0014,"lon":104.5525,"stations":29},"geometry":{"type":"Point","coordinates":[104.5525,17.0014]}},{"type":"Feature","properties":{"id":"นครราชสีมา","name":"นครราชสีมา","province":"ภาคตะวันออกเฉียงเหนือ","lat":14.6746,"lon":101.8473,"stations":106},"geometry":{"type":"Point","coordinates":[101.8473,14.6746]}},{"type":"Feature","properties":{"id":"นครศรีธรรมราช","name":"นครศรีธรรมราช","province":"ภาคใต้","lat":8.3958,"lon":99.7778,"stations":144},"geometry":{"type":"Point","coordinates":[99.7778,8.3958]}},{"type":"Feature","properties":{"id":"นครสวรรค์","name":"นครสวรรค์","province":"ภาคเหนือ","lat":15.7266,"lon":100.0838,"stations":48},"geometry":{"type":"Point","coordinates":[100.0838,15.7266]}},{"type":"Feature","properties":{"id":"นนทบุรี","name":"นนทบุรี","province":"ภาคกลาง","lat":13.974,"lon":100.3221,"stations":3},"geometry":{"type":"Point","coordinates":[100.3221,13.974]}},{"type":"Feature","properties":{"id":"นราธิวาส","name":"นราธิวาส","province":"ภาคใต้","lat":6.1938,"lon":101.7613,"stations":64},"geometry":{"type":"Point","coordinates":[101.7613,6.1938]}},{"type":"Feature","properties":{"id":"น่าน","name":"น่าน","province":"ภาคเหนือ","lat":18.9627,"lon":100.8498,"stations":215},"geometry":{"type":"Point","coordinates":[100.8498,18.9627]}},{"type":"Feature","properties":{"id":"บึงกาฬ","name":"บึงกาฬ","province":"ภาคตะวันออกเฉียงเหนือ","lat":18.2826,"lon":103.8213,"stations":13},"geometry":{"type":"Point","coordinates":[103.8213,18.2826]}},{"type":"Feature","properties":{"id":"บุรีรัมย์","name":"บุรีรัมย์","province":"ภาคตะวันออกเฉียงเหนือ","lat":14.633,"lon":102.8886,"stations":23},"geometry":{"type":"Point","coordinates":[102.8886,14.633]}},{"type":"Feature","properties":{"id":"ปทุมธานี","name":"ปทุมธานี","province":"ภาคกลาง","lat":14.0777,"lon":100.775,"stations":11},"geometry":{"type":"Point","coordinates":[100.775,14.0777]}},{"type":"Feature","properties":{"id":"ประจวบคีรีขันธ์","name":"ประจวบคีรีขันธ์","province":"ภาคกลาง","lat":11.936,"lon":99.6604,"stations":71},"geometry":{"type":"Point","coordinates":[99.6604,11.936]}},{"type":"Feature","properties":{"id":"ปราจีนบุรี","name":"ปราจีนบุรี","province":"ภาคกลาง","lat":14.0709,"lon":101.6587,"stations":33},"geometry":{"type":"Point","coordinates":[101.6587,14.0709]}},{"type":"Feature","properties":{"id":"ปัตตานี","name":"ปัตตานี","province":"ภาคใต้","lat":6.7373,"lon":101.3391,"stations":28},"geometry":{"type":"Point","coordinates":[101.3391,6.7373]}},{"type":"Feature","properties":{"id":"พระนครศรีอยุธยา","name":"พระนครศรีอยุธยา","province":"ภาคกลาง","lat":14.4151,"lon":100.5507,"stations":30},"geometry":{"type":"Point","coordinates":[100.5507,14.4151]}},{"type":"Feature","properties":{"id":"พะเยา","name":"พะเยา","province":"ภาคเหนือ","lat":19.2667,"lon":100.2752,"stations":125},"geometry":{"type":"Point","coordinates":[100.2752,19.2667]}},{"type":"Feature","properties":{"id":"พังงา","name":"พังงา","province":"ภาคใต้","lat":8.6837,"lon":98.4166,"stations":53},"geometry":{"type":"Point","coordinates":[98.4166,8.6837]}},{"type":"Feature","properties":{"id":"พัทลุง","name":"พัทลุง","province":"ภาคใต้","lat":7.5137,"lon":99.9881,"stations":56},"geometry":{"type":"Point","coordinates":[99.9881,7.5137]}},{"type":"Feature","properties":{"id":"พิจิตร","name":"พิจิตร","province":"ภาคเหนือ","lat":16.2579,"lon":100.3122,"stations":14},"geometry":{"type":"Point","coordinates":[100.3122,16.2579]}},{"type":"Feature","properties":{"id":"พิษณุโลก","name":"พิษณุโลก","province":"ภาคเหนือ","lat":17.0217,"lon":100.7061,"stations":85},"geometry":{"type":"Point","coordinates":[100.7061,17.0217]}},{"type":"Feature","properties":{"id":"ภูเก็ต","name":"ภูเก็ต","province":"ภาคใต้","lat":7.9897,"lon":98.328,"stations":21},"geometry":{"type":"Point","coordinates":[98.328,7.9897]}},{"type":"Feature","properties":{"id":"มหาสารคาม","name":"มหาสารคาม","province":"ภาคตะวันออกเฉียงเหนือ","lat":16.1885,"lon":103.1511,"stations":18},"geometry":{"type":"Point","coordinates":[103.1511,16.1885]}},{"type":"Feature","properties":{"id":"มุกดาหาร","name":"มุกดาหาร","province":"ภาคตะวันออกเฉียงเหนือ","lat":16.5422,"lon":104.6267,"stations":18},"geometry":{"type":"Point","coordinates":[104.6267,16.5422]}},{"type":"Feature","properties":{"id":"ยะลา","name":"ยะลา","province":"ภาคใต้","lat":6.2573,"lon":101.1991,"stations":79},"geometry":{"type":"Point","coordinates":[101.1991,6.2573]}},{"type":"Feature","properties":{"id":"ยโสธร","name":"ยโสธร","province":"ภาคตะวันออกเฉียงเหนือ","lat":15.9231,"lon":104.3576,"stations":14},"geometry":{"type":"Point","coordinates":[104.3576,15.9231]}},{"type":"Feature","properties":{"id":"ระนอง","name":"ระนอง","province":"ภาคใต้","lat":9.9811,"lon":98.6798,"stations":50},"geometry":{"type":"Point","coordinates":[98.6798,9.9811]}},{"type":"Feature","properties":{"id":"ระยอง","name":"ระยอง","province":"ภาคกลาง","lat":12.803,"lon":101.3816,"stations":25},"geometry":{"type":"Point","coordinates":[101.3816,12.803]}},{"type":"Feature","properties":{"id":"ราชบุรี","name":"ราชบุรี","province":"ภาคกลาง","lat":13.4464,"lon":99.4386,"stations":34},"geometry":{"type":"Point","coordinates":[99.4386,13.4464]}},{"type":"Feature","properties":{"id":"ร้อยเอ็ด","name":"ร้อยเอ็ด","province":"ภาคตะวันออกเฉียงเหนือ","lat":16.0732,"lon":103.7521,"stations":15},"geometry":{"type":"Point","coordinates":[103.7521,16.0732]}},{"type":"Feature","properties":{"id":"ลพบุรี","name":"ลพบุรี","province":"ภาคกลาง","lat":15.0818,"lon":100.8623,"stations":28},"geometry":{"type":"Point","coordinates":[100.8623,15.0818]}},{"type":"Feature","properties":{"id":"ลำปาง","name":"ลำปาง","province":"ภาคเหนือ","lat":18.4265,"lon":99.5031,"stations":176},"geometry":{"type":"Point","coordinates":[99.5031,18.4265]}},{"type":"Feature","properties":{"id":"ลำพูน","name":"ลำพูน","province":"ภาคเหนือ","lat":18.2508,"lon":98.9783,"stations":73},"geometry":{"type":"Point","coordinates":[98.9783,18.2508]}},{"type":"Feature","properties":{"id":"ศรีสะเกษ","name":"ศรีสะเกษ","province":"ภาคตะวันออกเฉียงเหนือ","lat":14.6803,"lon":104.2732,"stations":21},"geometry":{"type":"Point","coordinates":[104.2732,14.6803]}},{"type":"Feature","properties":{"id":"สกลนคร","name":"สกลนคร","province":"ภาคตะวันออกเฉียงเหนือ","lat":17.1291,"lon":103.9694,"stations":41},"geometry":{"type":"Point","coordinates":[103.9694,17.1291]}},{"type":"Feature","properties":{"id":"สงขลา","name":"สงขลา","province":"ภาคใต้","lat":6.903,"lon":100.5212,"stations":99},"geometry":{"type":"Point","coordinates":[100.5212,6.903]}},{"type":"Feature","properties":{"id":"สตูล","name":"สตูล","province":"ภาคใต้","lat":6.9282,"lon":99.936,"stations":38},"geometry":{"type":"Point","coordinates":[99.936,6.9282]}},{"type":"Feature","properties":{"id":"สมุทรปราการ","name":"สมุทรปราการ","province":"ภาคกลาง","lat":13.6762,"lon":100.5823,"stations":11},"geometry":{"type":"Point","coordinates":[100.5823,13.6762]}},{"type":"Feature","properties":{"id":"สมุทรสงคราม","name":"สมุทรสงคราม","province":"ภาคกลาง","lat":13.3957,"lon":99.9883,"stations":6},"geometry":{"type":"Point","coordinates":[99.9883,13.3957]}},{"type":"Feature","properties":{"id":"สมุทรสาคร","name":"สมุทรสาคร","province":"ภาคกลาง","lat":13.5787,"lon":100.2269,"stations":6},"geometry":{"type":"Point","coordinates":[100.2269,13.5787]}},{"type":"Feature","properties":{"id":"สระบุรี","name":"สระบุรี","province":"ภาคกลาง","lat":14.6726,"lon":101.12,"stations":23},"geometry":{"type":"Point","coordinates":[101.12,14.6726]}},{"type":"Feature","properties":{"id":"สระแก้ว","name":"สระแก้ว","province":"ภาคกลาง","lat":13.7552,"lon":102.3775,"stations":40},"geometry":{"type":"Point","coordinates":[102.3775,13.7552]}},{"type":"Feature","properties":{"id":"สิงห์บุรี","name":"สิงห์บุรี","province":"ภาคกลาง","lat":14.8978,"lon":100.3865,"stations":10},"geometry":{"type":"Point","coordinates":[100.3865,14.8978]}},{"type":"Feature","properties":{"id":"สุพรรณบุรี","name":"สุพรรณบุรี","province":"ภาคกลาง","lat":14.7718,"lon":99.7736,"stations":34},"geometry":{"type":"Point","coordinates":[99.7736,14.7718]}},{"type":"Feature","properties":{"id":"สุราษฎร์ธานี","name":"สุราษฎร์ธานี","province":"ภาคใต้","lat":9.023,"lon":99.0408,"stations":141},"geometry":{"type":"Point","coordinates":[99.0408,9.023]}},{"type":"Feature","properties":{"id":"สุรินทร์","name":"สุรินทร์","province":"ภาคตะวันออกเฉียงเหนือ","lat":14.8755,"lon":103.6153,"stations":17},"geometry":{"type":"Point","coordinates":[103.6153,14.8755]}},{"type":"Feature","properties":{"id":"สุโขทัย","name":"สุโขทัย","province":"ภาคเหนือ","lat":17.2437,"lon":99.715,"stations":67},"geometry":{"type":"Point","coordinates":[99.715,17.2437]}},{"type":"Feature","properties":{"id":"หนองคาย","name":"หนองคาย","province":"ภาคตะวันออกเฉียงเหนือ","lat":18.0686,"lon":102.2274,"stations":11},"geometry":{"type":"Point","coordinates":[102.2274,18.0686]}},{"type":"Feature","properties":{"id":"หนองบัวลำภู","name":"หนองบัวลำภู","province":"ภาคตะวันออกเฉียงเหนือ","lat":17.229,"lon":102.2842,"stations":31},"geometry":{"type":"Point","coordinates":[102.2842,17.229]}},{"type":"Feature","properties":{"id":"อำนาจเจริญ","name":"อำนาจเจริญ","province":"ภาคตะวันออกเฉียงเหนือ","lat":15.8948,"lon":104.6351,"stations":10},"geometry":{"type":"Point","coordinates":[104.6351,15.8948]}},{"type":"Feature","properties":{"id":"อุดรธานี","name":"อุดรธานี","province":"ภาคตะวันออกเฉียงเหนือ","lat":17.4476,"lon":102.6152,"stations":36},"geometry":{"type":"Point","coordinates":[102.6152,17.4476]}},{"type":"Feature","properties":{"id":"อุตรดิตถ์","name":"อุตรดิตถ์","province":"ภาคเหนือ","lat":17.7347,"lon":100.3647,"stations":83},"geometry":{"type":"Point","coordinates":[100.3647,17.7347]}},{"type":"Feature","properties":{"id":"อุทัยธานี","name":"อุทัยธานี","province":"ภาคเหนือ","lat":15.3047,"lon":99.5428,"stations":43},"geometry":{"type":"Point","coordinates":[99.5428,15.3047]}},{"type":"Feature","properties":{"id":"อุบลราชธานี","name":"อุบลราชธานี","province":"ภาคตะวันออกเฉียงเหนือ","lat":15.2373,"lon":105.0675,"stations":53},"geometry":{"type":"Point","coordinates":[105.0675,15.2373]}},{"type":"Feature","properties":{"id":"อ่างทอง","name":"อ่างทอง","province":"ภาคกลาง","lat":14.565,"lon":100.3826,"stations":4},"geometry":{"type":"Point","coordinates":[100.3826,14.565]}},{"type":"Feature","properties":{"id":"เชียงราย","name":"เชียงราย","province":"ภาคเหนือ","lat":19.8905,"lon":99.7711,"stations":246},"geometry":{"type":"Point","coordinates":[99.7711,19.8905]}},{"type":"Feature","properties":{"id":"เชียงใหม่","name":"เชียงใหม่","province":"ภาคเหนือ","lat":18.9567,"lon":98.8002,"stations":333},"geometry":{"type":"Point","coordinates":[98.8002,18.9567]}},{"type":"Feature","properties":{"id":"เพชรบุรี","name":"เพชรบุรี","province":"ภาคกลาง","lat":12.912,"lon":99.686,"stations":48},"geometry":{"type":"Point","coordinates":[99.686,12.912]}},{"type":"Feature","properties":{"id":"เพชรบูรณ์","name":"เพชรบูรณ์","province":"ภาคเหนือ","lat":16.4093,"lon":101.15,"stations":83},"geometry":{"type":"Point","coordinates":[101.15,16.4093]}},{"type":"Feature","properties":{"id":"เลย","name":"เลย","province":"ภาคตะวันออกเฉียงเหนือ","lat":17.4479,"lon":101.5972,"stations":115},"geometry":{"type":"Point","coordinates":[101.5972,17.4479]}},{"type":"Feature","properties":{"id":"แพร่","name":"แพร่","province":"ภาคเหนือ","lat":18.0969,"lon":100.0741,"stations":103},"geometry":{"type":"Point","coordinates":[100.0741,18.0969]}},{"type":"Feature","properties":{"id":"แม่ฮ่องสอน","name":"แม่ฮ่องสอน","province":"ภาคเหนือ","lat":19.0407,"lon":98.0114,"stations":110},"geometry":{"type":"Point","coordinates":[98.0114,19.0407]}}]}