{"type": "FeatureCollection", "attribution": "© OpenStreetMap contributors (ODbL)", "note": "PREVIEW SAMPLE from Nominatim; the real file is built by build_geo.py", "features": [{"type": "Feature", "properties": {"name": "ถนนกรุงเทพกรีฑา", "key": "กรุงเทพกรีฑา", "name_en": "", "ref": ""}, "geometry": {"type": "LineString", "coordinates": [[100.656371, 13.7477536], [100.6563496, 13.7477556], [100.6559452, 13.747794], [100.6557925, 13.7478187], [100.655409, 13.7478806], [100.6552253, 13.7479103], [100.6544828, 13.7480561], [100.6537084, 13.7482141], [100.6528485, 13.7483896], [100.6525922, 13.7484415], [100.6525034, 13.748509]]}}, {"type": "Feature", "properties": {"name": "ถนนรามคำแหง", "key": "รามคำแหง", "name_en": "", "ref": ""}, "geometry": {"type": "LineString", "coordinates": [[100.6157167, 13.7576155], [100.6166257, 13.7585261], [100.6168394, 13.7587173], [100.6170545, 13.7588845], [100.6173166, 13.7590622], [100.6175914, 13.7592238], [100.6178434, 13.7593485], [100.6181307, 13.7594732], [100.6184061, 13.7595728], [100.6187041, 13.7596604], [100.6190008, 13.7597224], [100.6193108, 13.7597707], [100.6196716, 13.7598093], [100.6217743, 13.7600467], [100.6234918, 13.760235], [100.6246037, 13.7603665], [100.6258406, 13.7605014], [100.6271482, 13.7606486], [100.631492, 13.7611442], [100.6324025, 13.7612312], [100.6337859, 13.7613861], [100.6354396, 13.7615759]]}}, {"type": "Feature", "properties": {"name": "ถนนรามคำแหง", "key": "รามคำแหง", "name_en": "", "ref": ""}, "geometry": {"type": "LineString", "coordinates": [[100.6011492, 13.7412661], [100.6013319, 13.7414228], [100.601384, 13.7414801], [100.6014224, 13.7415542], [100.601469, 13.7416881], [100.6014798, 13.7418368], [100.601461, 13.7420595], [100.6014294, 13.7424334], [100.6014167, 13.7425833], [100.6014087, 13.7426521], [100.601403, 13.742718], [100.6013989, 13.7427646], [100.6013855, 13.7429183], [100.6013865, 13.7429828], [100.601389, 13.7431243], [100.60141, 13.7432184], [100.6014488, 13.7433328], [100.6015042, 13.7434295], [100.6015829, 13.7435217], [100.6018419, 13.7437808], [100.601902, 13.7438418], [100.6019147, 13.7438541], [100.6022759, 13.744228], [100.6027139, 13.7446707], [100.6028799, 13.7448384], [100.603047, 13.7450032], [100.603765, 13.7457123], [100.6038062, 13.7457562], [100.6039422, 13.7458892], [100.6040719, 13.7460225], [100.6043803, 13.7463596]]}}, {"type": "Feature", "properties": {"name": "ถนนรามคำแหง", "key": "รามคำแหง", "name_en": "", "ref": ""}, "geometry": {"type": "LineString", "coordinates": [[100.6405405, 13.7621556], [100.6419416, 13.7623085], [100.6426742, 13.7624198], [100.6446784, 13.7626533], [100.6464788, 13.7628448], [100.6473633, 13.7629425], [100.6478213, 13.7629913], [100.648266, 13.7630532], [100.648695, 13.7631248], [100.6489001, 13.7631623], [100.6490383, 13.76319], [100.6492422, 13.7632408], [100.6494301, 13.7632939], [100.6499241, 13.7634557], [100.6501607, 13.7635559], [100.6504431, 13.7636811]]}}, {"type": "Feature", "properties": {"name": "ถนนรามคำแหง", "key": "รามคำแหง", "name_en": "", "ref": ""}, "geometry": {"type": "LineString", "coordinates": [[100.6492826, 13.7631785], [100.6490971, 13.763128], [100.6489775, 13.7630987], [100.6488801, 13.7630749], [100.6487784, 13.7630511]]}}, {"type": "Feature", "properties": {"name": "ถนนสุขาภิบาล", "key": "สุขาภิบาล", "name_en": "", "ref": ""}, "geometry": {"type": "LineString", "coordinates": [[100.2749105, 13.5451297], [100.2751364, 13.5451919], [100.2753912, 13.5452752], [100.2756672, 13.5453757], [100.2762235, 13.5456025], [100.2763731, 13.5456635], [100.2764191, 13.5456854], [100.2765113, 13.5457294], [100.2767945, 13.5458644], [100.2768057, 13.5458858], [100.2770621, 13.5459993], [100.277168, 13.5460462], [100.2773146, 13.5461213]]}}, {"type": "Feature", "properties": {"name": "ถนนสุขาภิบาล", "key": "สุขาภิบาล", "name_en": "", "ref": ""}, "geometry": {"type": "LineString", "coordinates": [[100.2789535, 13.5467991], [100.278685, 13.5467022], [100.278573, 13.5466554], [100.2782049, 13.5465016], [100.2774997, 13.5462001], [100.2774215, 13.5461667], [100.2773751, 13.5461469], [100.2773146, 13.5461213]]}}, {"type": "Feature", "properties": {"name": "ถนนอ่อนนุช", "key": "อ่อนนุช", "name_en": "", "ref": ""}, "geometry": {"type": "LineString", "coordinates": [[100.6507925, 13.7157522], [100.6505635, 13.7157096], [100.6503673, 13.7156543], [100.650192, 13.7155944], [100.6500085, 13.7155081], [100.6498202, 13.7154036], [100.6487359, 13.714703], [100.6483549, 13.7144659], [100.6482099, 13.7143823], [100.6478914, 13.7142184], [100.6476077, 13.7140829], [100.6474439, 13.7140047], [100.6470409, 13.7138025], [100.6467167, 13.7136399], [100.6462432, 13.7134322], [100.646114, 13.7133551]]}}, {"type": "Feature", "properties": {"name": "ถนนอ่อนนุช", "key": "อ่อนนุช", "name_en": "", "ref": ""}, "geometry": {"type": "LineString", "coordinates": [[100.6536294, 13.7162053], [100.6525612, 13.7160352], [100.6520184, 13.7159488], [100.6517595, 13.7159104], [100.6513438, 13.7158487]]}}, {"type": "Feature", "properties": {"name": "ถนนอ่อนนุช", "key": "อ่อนนุช", "name_en": "", "ref": ""}, "geometry": {"type": "LineString", "coordinates": [[100.6007114, 13.7096024], [100.6007944, 13.7096492], [100.6012638, 13.7099138]]}}, {"type": "Feature", "properties": {"name": "ถนนเทพรัตน", "key": "เทพรัตน", "name_en": "", "ref": ""}, "geometry": {"type": "LineString", "coordinates": [[100.6150696, 13.6717477], [100.616803, 13.6714134], [100.6214946, 13.670481], [100.6232279, 13.6701495], [100.626188, 13.6695766], [100.6277989, 13.6692356], [100.6284997, 13.6690975], [100.6294034, 13.6689174], [100.6310171, 13.6686108], [100.6324835, 13.6683023], [100.6339804, 13.6680049], [100.6354964, 13.6677112], [100.6369997, 13.6674013], [100.6384991, 13.6670948], [100.6415563, 13.6665311], [100.6435308, 13.6661456], [100.6445921, 13.6659198], [100.6475846, 13.6653137], [100.6488827, 13.6650608], [100.650654, 13.6647158], [100.6517807, 13.6644838], [100.6521878, 13.6643914]]}}, {"type": "Feature", "properties": {"name": "ถนนเทพรัตน", "key": "เทพรัตน", "name_en": "", "ref": ""}, "geometry": {"type": "LineString", "coordinates": [[100.6282478, 13.6686701], [100.6279373, 13.6687296], [100.6277485, 13.6687658], [100.6272813, 13.6688603], [100.6268267, 13.6689014], [100.6266353, 13.6689406], [100.6265026, 13.6689678], [100.6260219, 13.6690584], [100.625, 13.6692597], [100.6242586, 13.6694023], [100.6235983, 13.6695358], [100.6234184, 13.6695707], [100.6232669, 13.6695993], [100.6223727, 13.6697747], [100.6207139, 13.6701074], [100.6198872, 13.6702741], [100.6196505, 13.6703218], [100.6195497, 13.6703421], [100.6183128, 13.6705929], [100.6180099, 13.6706521], [100.6178162, 13.6706966], [100.6174745, 13.6707762], [100.6174457, 13.6707819], [100.6166569, 13.6709384], [100.61608, 13.6710467]]}}, {"type": "Feature", "properties": {"name": "ถนนงามวงศ์วาน", "key": "งามวงศ์วาน", "name_en": "", "ref": ""}, "geometry": {"type": "LineString", "coordinates": [[100.5454735, 13.8562717], [100.5455052, 13.8562668], [100.5457597, 13.856229], [100.5459583, 13.85619], [100.5462587, 13.8560991], [100.5464233, 13.8560371], [100.5466036, 13.8559596], [100.5467819, 13.8558742], [100.5473665, 13.8555521], [100.5482327, 13.8550656], [100.5485617, 13.854878], [100.5487437, 13.8547755], [100.5489001, 13.8546383], [100.5490817, 13.8545343], [100.5495362, 13.8542799], [100.549804, 13.8541313], [100.5500678, 13.8539818], [100.5501438, 13.8539397], [100.551087, 13.8534103], [100.5514345, 13.8532144], [100.5519336, 13.8529321], [100.5519577, 13.8529189], [100.5524056, 13.8526713]]}}, {"type": "Feature", "properties": {"name": "ถนนงามวงศ์วาน", "key": "งามวงศ์วาน", "name_en": "", "ref": ""}, "geometry": {"type": "LineString", "coordinates": [[100.5586707, 13.8491381], [100.5642051, 13.8461035]]}}, {"type": "Feature", "properties": {"name": "ถนนงามวงศ์วาน", "key": "งามวงศ์วาน", "name_en": "", "ref": ""}, "geometry": {"type": "LineString", "coordinates": [[100.541582, 13.8566745], [100.5449058, 13.8562742], [100.545695, 13.8561614], [100.5459979, 13.8560884], [100.5462988, 13.8560038], [100.5465652, 13.8558931], [100.5468096, 13.8557667], [100.5482728, 13.854939]]}}, {"type": "Feature", "properties": {"name": "ถนนงามวงศ์วาน", "key": "งามวงศ์วาน", "name_en": "", "ref": ""}, "geometry": {"type": "LineString", "coordinates": [[100.5389791, 13.8568948], [100.5385641, 13.8569471], [100.537763, 13.8570454], [100.5372978, 13.8571029], [100.5369071, 13.857149], [100.5362008, 13.8572341], [100.5360892, 13.8572472], [100.5349127, 13.8573997], [100.5346085, 13.8574359]]}}, {"type": "Feature", "properties": {"name": "ถนนงามวงศ์วาน", "key": "งามวงศ์วาน", "name_en": "", "ref": ""}, "geometry": {"type": "LineString", "coordinates": [[100.5526331, 13.8523472], [100.5522419, 13.8525732]]}}, {"type": "Feature", "properties": {"name": "ถนนเฉลิมพระเกียรติ", "key": "เฉลิมพระเกียรติ", "name_en": "", "ref": ""}, "geometry": {"type": "LineString", "coordinates": [[100.3204198, 13.66897], [100.3204811, 13.6689706], [100.3206808, 13.6689726], [100.3213321, 13.6689578], [100.3216825, 13.6689289], [100.3219709, 13.6688783], [100.3221721, 13.6688394], [100.3222654, 13.6688213], [100.3224613, 13.6687769], [100.3226751, 13.6687229], [100.3227872, 13.6686607], [100.3228644, 13.668612], [100.3229179, 13.6685691], [100.3229628, 13.6685303], [100.3229776, 13.6685176], [100.3230239, 13.6684876], [100.323075, 13.6684664], [100.323334, 13.6684294], [100.3234047, 13.6684218], [100.3236318, 13.6683839], [100.3240029, 13.6683267], [100.3241263, 13.6683117], [100.3241528, 13.6683085], [100.3242235, 13.6683], [100.3243895, 13.6682766], [100.3244156, 13.6682772], [100.3244672, 13.6682872], [100.3245065, 13.6683115], [100.3245477, 13.6683686], [100.3245663, 13.6684343], [100.3245784, 13.6685299], [100.3245892, 13.6686154], [100.3246674, 13.669233], [100.3247131, 13.6696993], [100.3247457, 13.6700317], [100.3247708, 13.6701213], [100.3247903, 13.6701536], [100.3249775, 13.6702726], [100.3250519, 13.670301], [100.3256431, 13.6705266], [100.3258699, 13.6706132], [100.32619, 13.6707451], [100.3262844, 13.6707861], [100.3263699, 13.6708162], [100.3267111, 13.6709599], [100.3269967, 13.671074], [100.3272613, 13.6711798], [100.3276447, 13.6713364], [100.3279898, 13.6714714], [100.3281432, 13.6715318], [100.3282378, 13.6715692], [100.3283857, 13.6716275], [100.3284941, 13.6716703], [100.3285977, 13.6717049], [100.3286916, 13.6717424], [100.3292092, 13.6719438], [100.329586, 13.6720657], [100.329895, 13.6721846], [100.3301352, 13.672277], [100.3312334, 13.6727022], [100.3315911, 13.6728428], [100.331692, 13.6728793], [100.3328964, 13.6733484], [100.3330682, 13.6734145], [100.3332346, 13.6734805], [100.3336886, 13.6736598], [100.3338104, 13.6737079], [100.3341772, 13.6738527], [100.3343095, 13.673896], [100.3343663, 13.6738929], [100.3344284, 13.6738763], [100.3344874, 13.6738358], [100.3345899, 13.6735811], [100.3350025, 13.6725561], [100.335056, 13.6724233], [100.3351122, 13.6722579], [100.3351297, 13.6721848], [100.3352067, 13.6716597], [100.3353119, 13.6709415], [100.3353456, 13.6707996], [100.3353993, 13.6707136], [100.3354583, 13.6706589], [100.3355441, 13.670625], [100.3359481, 13.6706843], [100.3366211, 13.6707859], [100.3367143, 13.6708005], [100.3368221, 13.6708174], [100.3370042, 13.6708459], [100.3373118, 13.670894], [100.3375417, 13.67093], [100.3385627, 13.6710747]]}}, {"type": "Feature", "properties": {"name": "ถนนเฉลิมพระเกียรติ", "key": "เฉลิมพระเกียรติ", "name_en": "", "ref": ""}, "geometry": {"type": "LineString", "coordinates": [[100.3165836, 13.6679895], [100.3167611, 13.6680351], [100.3170145, 13.6681052], [100.3172232, 13.6681631], [100.3172381, 13.6681672], [100.317648, 13.6682824], [100.3180516, 13.6683957], [100.3182332, 13.6684467], [100.3184262, 13.6684975], [100.3187156, 13.6685736], [100.3190512, 13.6686619], [100.3190766, 13.6686685], [100.3197043, 13.6688336], [100.3197202, 13.6688378], [100.3202096, 13.6689664], [100.3202612, 13.6689684]]}}, {"type": "Feature", "properties": {"name": "ถนนศรีนครินทร์", "key": "ศรีนครินทร์", "name_en": "", "ref": ""}, "geometry": {"type": "LineString", "coordinates": [[100.6128677, 13.6003204], [100.6128459, 13.6002151], [100.6128221, 13.6000871], [100.6127808, 13.5998651], [100.6126336, 13.5990746], [100.6125576, 13.5986775], [100.6125517, 13.5986469], [100.6124882, 13.5983669], [100.6124389, 13.5982258], [100.6123553, 13.5980429], [100.6122493, 13.5978469], [100.6122188, 13.5978039], [100.6120852, 13.59762], [100.6119428, 13.5974567], [100.6117894, 13.5972925], [100.6116681, 13.5971815], [100.6114886, 13.5970362], [100.611267, 13.5968791], [100.6111142, 13.5967922], [100.6110725, 13.59677], [100.6110273, 13.5967444], [100.610737, 13.5966177], [100.6105792, 13.596553], [100.6102599, 13.5964188], [100.6100228, 13.5963192]]}}, {"type": "Feature", "properties": {"name": "ถนนศรีนครินทร์", "key": "ศรีนครินทร์", "name_en": "", "ref": ""}, "geometry": {"type": "LineString", "coordinates": [[100.6301656, 13.6330855], [100.6300492, 13.6328436], [100.62997, 13.6326817], [100.6298675, 13.6324972], [100.6295657, 13.6319842], [100.629497, 13.6318662], [100.6292331, 13.6314127], [100.6291718, 13.6313074], [100.6288605, 13.6307551], [100.6286791, 13.6304726]]}}, {"type": "Feature", "properties": {"name": "ถนนศรีนครินทร์", "key": "ศรีนครินทร์", "name_en": "", "ref": ""}, "geometry": {"type": "LineString", "coordinates": [[100.6167684, 13.6087098], [100.616536, 13.6083854], [100.6163942, 13.6081778], [100.6162859, 13.6080104], [100.6161543, 13.6078045], [100.6157715, 13.6071963], [100.6156026, 13.6069256], [100.6154784, 13.6067137], [100.6153718, 13.6065225], [100.6152748, 13.606336]]}}, {"type": "Feature", "properties": {"name": "ถนนศรีนครินทร์", "key": "ศรีนครินทร์", "name_en": "", "ref": ""}, "geometry": {"type": "LineString", "coordinates": [[100.6266985, 13.6270108], [100.6264987, 13.6266271], [100.6259956, 13.6256104], [100.6257145, 13.6250594], [100.6256364, 13.6249006], [100.6254226, 13.624582]]}}, {"type": "Feature", "properties": {"name": "ถนนศรีนครินทร์", "key": "ศรีนครินทร์", "name_en": "", "ref": ""}, "geometry": {"type": "LineString", "coordinates": [[100.613869, 13.6032304], [100.613529, 13.602473], [100.6134345, 13.602259], [100.6133171, 13.6019873], [100.6132292, 13.6017729], [100.6131424, 13.6015206], [100.6130738, 13.6013019], [100.6130138, 13.6010881], [100.6129675, 13.6008888], [100.6129259, 13.6006603], [100.6128677, 13.6003204]]}}, {"type": "Feature", "properties": {"name": "ถนนศรีนครินทร์", "key": "ศรีนครินทร์", "name_en": "", "ref": ""}, "geometry": {"type": "LineString", "coordinates": [[100.6466003, 13.6833999], [100.6465513, 13.6827343], [100.6464855, 13.6818963], [100.6464589, 13.6815122], [100.6464455, 13.6812469], [100.6464321, 13.6808146], [100.6462334, 13.6786996], [100.6462157, 13.6785133]]}}, {"type": "Feature", "properties": {"name": "ถนนศรีนครินทร์", "key": "ศรีนครินทร์", "name_en": "", "ref": ""}, "geometry": {"type": "LineString", "coordinates": [[100.6416185, 13.728674], [100.6416439, 13.7283816], [100.641657, 13.7281671], [100.6416786, 13.7278445], [100.6417133, 13.7273898], [100.6417243, 13.727238], [100.6418184, 13.7259445], [100.641851, 13.7255492], [100.6419261, 13.7245919]]}}, {"type": "Feature", "properties": {"name": "ถนนศรีนครินทร์", "key": "ศรีนครินทร์", "name_en": "", "ref": ""}, "geometry": {"type": "LineString", "coordinates": [[100.6424951, 13.6573512], [100.6425173, 13.6574646], [100.6425332, 13.6575429], [100.6428992, 13.6593458], [100.6430255, 13.6596952]]}}, {"type": "Feature", "properties": {"name": "ถนนสุวินทวงศ์", "key": "สุวินทวงศ์", "name_en": "", "ref": ""}, "geometry": {"type": "LineString", "coordinates": [[100.9264856, 13.8079641], [100.9246924, 13.8092391], [100.9243922, 13.8094259], [100.9239762, 13.8096259], [100.9236811, 13.809692], [100.9227379, 13.809799], [100.9224704, 13.8098215], [100.9216767, 13.8098921], [100.9208044, 13.8099824], [100.9190569, 13.8101383], [100.9180833, 13.8102185], [100.9170432, 13.8103041], [100.9170037, 13.8103076], [100.9169724, 13.8103104], [100.9158872, 13.8104083], [100.915469, 13.810446], [100.9128558, 13.810671], [100.9118289, 13.8107594], [100.9116944, 13.8107614], [100.9106425, 13.8108732], [100.9101594, 13.8109162], [100.9101304, 13.8109188], [100.9097319, 13.8109542], [100.9093047, 13.8109476], [100.9089269, 13.8108556], [100.9085328, 13.8106212], [100.9080684, 13.8102078], [100.9077805, 13.8099515]]}}, {"type": "Feature", "properties": {"name": "ถนนสุวินทวงศ์", "key": "สุวินทวงศ์", "name_en": "", "ref": ""}, "geometry": {"type": "LineString", "coordinates": [[100.8333945, 13.8072179], [100.8327749, 13.8072781], [100.8322568, 13.8073531], [100.831817, 13.8074081], [100.8316191, 13.8074273], [100.8311658, 13.8074748], [100.830602, 13.8075404], [100.8304309, 13.8075578], [100.8300133, 13.8076003], [100.8289012, 13.8077076], [100.8286716, 13.8077318], [100.8271987, 13.8078788], [100.8260571, 13.8079853], [100.8258201, 13.8080078], [100.825171, 13.8080546], [100.8249267, 13.8080774], [100.8245739, 13.8081104], [100.8237854, 13.808184], [100.8233364, 13.8082259], [100.8229031, 13.8082664], [100.8225724, 13.8082973], [100.822184, 13.8083335], [100.8219699, 13.8083535], [100.821877, 13.8083622], [100.8217509, 13.808374]]}}, {"type": "Feature", "properties": {"name": "ถนนสุวินทวงศ์", "key": "สุวินทวงศ์", "name_en": "", "ref": ""}, "geometry": {"type": "LineString", "coordinates": [[100.9443961, 13.7941354], [100.9468971, 13.7922878]]}}, {"type": "Feature", "properties": {"name": "ถนนสุวินทวงศ์", "key": "สุวินทวงศ์", "name_en": "", "ref": ""}, "geometry": {"type": "LineString", "coordinates": [[100.8215415, 13.8083998], [100.8211054, 13.8084451], [100.8208905, 13.8084674], [100.8205792, 13.8085062], [100.8196978, 13.8085997], [100.8193054, 13.8086368], [100.8189585, 13.8086696], [100.8185689, 13.8087065]]}}, {"type": "Feature", "properties": {"name": "ถนนนาคนิวาส", "key": "นาคนิวาส", "name_en": "", "ref": ""}, "geometry": {"type": "LineString", "coordinates": [[100.6067003, 13.8002877], [100.6067109, 13.8006153], [100.6067209, 13.8008257], [100.6067334, 13.8011068], [100.6067417, 13.8013414], [100.6067609, 13.8015955], [100.6068045, 13.8020931], [100.6068669, 13.8026447], [100.6068718, 13.8027053], [100.6069469, 13.8032099], [100.6069605, 13.8033198], [100.6069869, 13.8035335], [100.6070013, 13.8036495], [100.6070345, 13.8039174], [100.607058, 13.8041077], [100.6070718, 13.8042191], [100.6070908, 13.8042928], [100.6071636, 13.8044677], [100.6072556, 13.8046884], [100.6072739, 13.8047324], [100.6073045, 13.8048059], [100.6073457, 13.804905], [100.6073927, 13.8050178], [100.6075231, 13.805331], [100.60754, 13.8053714], [100.607729, 13.8058254], [100.6077682, 13.8059276], [100.6079416, 13.8063799], [100.6081406, 13.806899], [100.6083245, 13.8074193], [100.6085083, 13.8079393], [100.6086361, 13.8083008], [100.6087871, 13.8087279], [100.6088551, 13.8089091], [100.6089412, 13.8091638], [100.6090565, 13.8094902], [100.6091119, 13.8096467], [100.6091917, 13.8098727], [100.6092602, 13.8100663], [100.6094117, 13.810495], [100.6096447, 13.8111543], [100.6097303, 13.8113964]]}}, {"type": "Feature", "properties": {"name": "ถนนเทพรักษ์", "key": "เทพรักษ์", "name_en": "", "ref": ""}, "geometry": {"type": "LineString", "coordinates": [[100.5873977, 13.8939594], [100.5873494, 13.8937566], [100.5873524, 13.8935788], [100.5873713, 13.8935466], [100.5873869, 13.89352], [100.5874196, 13.8934642], [100.5875642, 13.8933934], [100.5877403, 13.8932992], [100.5887912, 13.8926967], [100.5900374, 13.8919171], [100.5901152, 13.8918684], [100.5901591, 13.891842], [100.5904259, 13.8916805], [100.5944507, 13.889212], [100.5947628, 13.8890932], [100.5951111, 13.8890616], [100.5953036, 13.8890847], [100.5954506, 13.8891023], [100.5957503, 13.889221], [100.5959719, 13.8893552], [100.5970495, 13.8902788], [100.5978004, 13.8908223], [100.5994724, 13.8918925], [100.5999217, 13.8922375], [100.6003176, 13.8924855], [100.6004869, 13.8926201], [100.6006305, 13.8927726], [100.6008398, 13.8929848], [100.6010099, 13.8931554], [100.6012087, 13.8933195], [100.6014105, 13.8934314], [100.6016154, 13.8935033], [100.6017945, 13.8935347]]}}, {"type": "Feature", "properties": {"name": "ถนนเทพรักษ์", "key": "เทพรักษ์", "name_en": "", "ref": ""}, "geometry": {"type": "LineString", "coordinates": [[100.6053292, 13.8903632], [100.6053317, 13.8904086], [100.6053216, 13.8904519], [100.6053109, 13.8904693], [100.6052976, 13.8904909], [100.6048626, 13.8908635], [100.6045175, 13.8911632], [100.6036499, 13.8919952], [100.6033114, 13.8923338], [100.6029791, 13.8926818]]}}, {"type": "Feature", "properties": {"name": "ถนนเทพรักษ์", "key": "เทพรักษ์", "name_en": "", "ref": ""}, "geometry": {"type": "LineString", "coordinates": [[100.6398073, 13.8762545], [100.6413641, 13.8758043], [100.6420071, 13.8756183], [100.6427404, 13.8754656], [100.6428984, 13.8754499]]}}, {"type": "Feature", "properties": {"name": "ถนนเทพรักษ์", "key": "เทพรักษ์", "name_en": "", "ref": ""}, "geometry": {"type": "LineString", "coordinates": [[100.6089521, 13.8890902], [100.6085063, 13.8892827], [100.6081397, 13.8893691], [100.6078841, 13.8894613], [100.6068158, 13.8898281]]}}]}